{
  "type": "FeatureCollection",
  "features": [
    {
      "type": "Feature",
      "properties": {
        "type": "poi",
        "id": "node_entrance",
        "name": "Main Entrance",
        "level": 1,
        "weight": 1.0
      },
      "geometry": {
        "type": "Point",
        "coordinates": [-97.0446, 32.89935, 1]
      }
    },
    {
      "type": "Feature",
      "properties": {
        "type": "poi",
        "id": "node_exit",
        "name": "Main Exit",
        "level": 1,
        "weight": 1.0
      },
      "geometry": {
        "type": "Point",
        "coordinates": [-97.0446, 32.8957, 1]
      }
    },
    {
      "type": "Feature",
      "properties": {
        "type": "poi",
        "id": "node_rr_nw_m",
        "name": "Restroom NW Male",
        "level": 1,
        "weight": 1.0
      },
      "geometry": {
        "type": "Point",
        "coordinates": [-97.0449, 32.89885, 1]
      }
    },
    {
      "type": "Feature",
      "properties": {
        "type": "poi",
        "id": "node_rr_nw_f",
        "name": "Restroom NW Female",
        "level": 1,
        "weight": 1.0
      },
      "geometry": {
        "type": "Point",
        "coordinates": [-97.0449, 32.89875, 1]
      }
    },
    {
      "type": "Feature",
      "properties": {
        "type": "poi",
        "id": "node_rr_nw_h",
        "name": "Restroom NW Handicap",
        "level": 1,
        "weight": 1.0
      },
      "geometry": {
        "type": "Point",
        "coordinates": [-97.0449, 32.89865, 1]
      }
    },
    {
      "type": "Feature",
      "properties": {
        "type": "poi",
        "id": "node_rr_sw_m",
        "name": "Restroom SW Male",
        "level": 1,
        "weight": 1.0
      },
      "geometry": {
        "type": "Point",
        "coordinates": [-97.0449, 32.89635, 1]
      }
    },
    {
      "type": "Feature",
      "properties": {
        "type": "poi",
        "id": "node_rr_sw_f",
        "name": "Restroom SW Female",
        "level": 1,
        "weight": 1.0
      },
      "geometry": {
        "type": "Point",
        "coordinates": [-97.0449, 32.89625, 1]
      }
    },
    {
      "type": "Feature",
      "properties": {
        "type": "poi",
        "id": "node_rr_sw_h",
        "name": "Restroom SW Handicap",
        "level": 1,
        "weight": 1.0
      },
      "geometry": {
        "type": "Point",
        "coordinates": [-97.0449, 32.89615, 1]
      }
    },
    {
      "type": "Feature",
      "properties": {
        "type": "poi",
        "id": "node_rr_ne_m",
        "name": "Restroom NE Male",
        "level": 1,
        "weight": 1.0
      },
      "geometry": {
        "type": "Point",
        "coordinates": [-97.0443, 32.89635, 1]
      }
    },
    {
      "type": "Feature",
      "properties": {
        "type": "poi",
        "id": "node_rr_ne_f",
        "name": "Restroom NE Female",
        "level": 1,
        "weight": 1.0
      },
      "geometry": {
        "type": "Point",
        "coordinates": [-97.0443, 32.89625, 1]
      }
    },
    {
      "type": "Feature",
      "properties": {
        "type": "poi",
        "id": "node_rr_ne_h",
        "name": "Restroom NE Handicap",
        "level": 1,
        "weight": 1.0
      },
      "geometry": {
        "type": "Point",
        "coordinates": [-97.0443, 32.89615, 1]
      }
    },
    {
      "type": "Feature",
      "properties": {
        "type": "poi",
        "id": "node_rr_se_m",
        "name": "Restroom SE Male",
        "level": 1,
        "weight": 1.0
      },
      "geometry": {
        "type": "Point",
        "coordinates": [-97.0443, 32.89735, 1]
      }
    },
    {
      "type": "Feature",
      "properties": {
        "type": "poi",
        "id": "node_rr_se_f",
        "name": "Restroom SE Female",
        "level": 1,
        "weight": 1.0
      },
      "geometry": {
        "type": "Point",
        "coordinates": [-97.0443, 32.89725, 1]
      }
    },
    {
      "type": "Feature",
      "properties": {
        "type": "poi",
        "id": "node_rr_se_h",
        "name": "Restroom SE Handicap",
        "level": 1,
        "weight": 1.0
      },
      "geometry": {
        "type": "Point",
        "coordinates": [-97.0443, 32.89715, 1]
      }
    },
    {
      "type": "Feature",
      "properties": {
        "type": "path",
        "id": "path_main_corridor_spine",
        "name": "Main Corridor Spine",
        "level": 1,
        "weight": 1.0
      },
      "geometry": {
        "type": "LineString",
        "coordinates": [
          [-97.0446, 32.89935, 1],
          [-97.0446, 32.8992, 1],
          [-97.0446, 32.89875, 1],
          [-97.0446, 32.89725, 1],
          [-97.0446, 32.89625, 1],
          [-97.0446, 32.8958, 1],
          [-97.0446, 32.8957, 1]
        ]
      }
    },
    {
      "type": "Feature",
      "properties": {
        "type": "path",
        "id": "path_branch_restroom_nw",
        "name": "Branch to Restroom NW",
        "level": 1,
        "weight": 1.0
      },
      "geometry": {
        "type": "LineString",
        "coordinates": [
          [-97.0446, 32.89875, 1],
          [-97.0449, 32.89875, 1]
        ]
      }
    },
    {
      "type": "Feature",
      "properties": {
        "type": "path",
        "id": "path_branch_restroom_sw",
        "name": "Branch to Restroom SW",
        "level": 1,
        "weight": 1.0
      },
      "geometry": {
        "type": "LineString",
        "coordinates": [
          [-97.0446, 32.89625, 1],
          [-97.0449, 32.89625, 1]
        ]
      }
    },
    {
      "type": "Feature",
      "properties": {
        "type": "path",
        "id": "path_branch_restroom_ne",
        "name": "Branch to Restroom NE",
        "level": 1,
        "weight": 1.0
      },
      "geometry": {
        "type": "LineString",
        "coordinates": [
          [-97.0446, 32.89625, 1],
          [-97.0443, 32.89625, 1]
        ]
      }
    },
    {
      "type": "Feature",
      "properties": {
        "type": "path",
        "id": "path_branch_restroom_se",
        "name": "Branch to Restroom SE",
        "level": 1,
        "weight": 1.0
      },
      "geometry": {
        "type": "LineString",
        "coordinates": [
          [-97.0446, 32.89725, 1],
          [-97.0443, 32.89725, 1]
        ]
      }
    }
  ]
}
