{
   "type":"FeatureCollection",
   "features":[
      {
         "type":"Feature",
         "properties":{
            "type":"path",
            "id":"w_main_corridor",
            "name":"West Main Corridor",
            "level":1
         },
         "geometry":{
            "type":"LineString",
            "coordinates":[
               [
                  -97.042203,
                  32.899369
               ],
               [
                  -97.042971,
                  32.899315
               ],
               [
                  -97.04348,
                  32.899306
               ],
               [
                  -97.043957,
                  32.899303
               ],
               [
                  -97.044248,
                  32.899001
               ],
               [
                  -97.044707,
                  32.898529
               ],
               [
                  -97.044725,
                  32.89804
               ],
               [
                  -97.044732,
                  32.897532
               ],
               [
                  -97.044736,
                  32.897036
               ],
               [
                  -97.044753,
                  32.89654
               ],
               [
                  -97.044422,
                  32.896232
               ],
               [
                  -97.043987,
                  32.895824
               ],
               [
                  -97.043489,
                  32.895804
               ],
               [
                  -97.042995,
                  32.895788
               ],
               [
                  -97.042287,
                  32.895728
               ]
            ]
         }
      },
      {
         "type":"Feature",
         "properties":{
            "type":"path",
            "id":"e_main_corridor",
            "name":"East Main Corridor",
            "level":1
         },
         "geometry":{
            "type":"LineString",
            "coordinates":[
               [
                  -97.043636,
                  32.899147
               ],
               [
                  -97.043947,
                  32.898815
               ],
               [
                  -97.044478,
                  32.898309
               ],
               [
                  -97.044471,
                  32.897546
               ],
               [
                  -97.044474,
                  32.896773
               ],
               [
                  -97.044179,
                  32.896499
               ],
               [
                  -97.043674,
                  32.896044
               ]
            ]
         }
      },
      {
         "type":"Feature",
         "properties":{
            "type":"path",
            "id":"gate_1",
            "name":"Gate 1",
            "level":1
         },
         "geometry":{
            "type":"LineString",
            "coordinates":[
               [
                  -97.043947,
                  32.898815
               ],
               [
                  -97.044248,
                  32.899001
               ]
            ]
         }
      },
      {
         "type":"Feature",
         "properties":{
            "type":"path",
            "id":"gate_2",
            "name":"Gate 2",
            "level":1
         },
         "geometry":{
            "type":"LineString",
            "coordinates":[
               [
                  -97.044471,
                  32.897546
               ],
               [
                  -97.044732,
                  32.897532
               ]
            ]
         }
      },
      {
         "type":"Feature",
         "properties":{
            "type":"path",
            "id":"gate_3",
            "name":"Gate 3",
            "level":1
         },
         "geometry":{
            "type":"LineString",
            "coordinates":[
               [
                  -97.044179,
                  32.896499
               ],
               [
                  -97.044422,
                  32.896232
               ]
            ]
         }
      },
      {
         "type":"Feature",
         "properties":{
            "type":"poi",
            "id":"rr_nw_1",
            "name":"North Wing Restroom 1 (Male)",
            "gender":"male",
            "level":1
         },
         "geometry":{
            "type":"Point",
            "coordinates":[
               -97.04398,
               32.89937,
               1
            ]
         }
      },
      {
         "type":"Feature",
         "properties":{
            "type":"path",
            "id":"rr_nw_1_branch",
            "name":"Branch to North Wing Restroom 1 (Male)",
            "level":1
         },
         "geometry":{
            "type":"LineString",
            "coordinates":[
               [
                  -97.04398,
                  32.89937,
                  1
               ],
               [
                  -97.043957,
                  32.899303,
                  1
               ]
            ]
         }
      },
      {
         "type":"Feature",
         "properties":{
            "type":"poi",
            "id":"rr_nw_2",
            "name":"North Wing Restroom 2 (Female)",
            "gender":"female",
            "level":1
         },
         "geometry":{
            "type":"Point",
            "coordinates":[
               -97.04394,
               32.89937,
               1
            ]
         }
      },
      {
         "type":"Feature",
         "properties":{
            "type":"path",
            "id":"rr_nw_2_branch",
            "name":"Branch to North Wing Restroom 2 (Female)",
            "level":1
         },
         "geometry":{
            "type":"LineString",
            "coordinates":[
               [
                  -97.04394,
                  32.89937,
                  1
               ],
               [
                  -97.043957,
                  32.899303,
                  1
               ]
            ]
         }
      },
      {
         "type":"Feature",
         "properties":{
            "type":"poi",
            "id":"rr_nw_3",
            "name":"North Wing Restroom 3 (Neutral)",
            "gender":"neutral",
            "level":1
         },
         "geometry":{
            "type":"Point",
            "coordinates":[
               -97.04348,
               32.89937,
               1
            ]
         }
      },
      {
         "type":"Feature",
         "properties":{
            "type":"path",
            "id":"rr_nw_3_branch",
            "name":"Branch to North Wing Restroom 3 (Neutral)",
            "level":1
         },
         "geometry":{
            "type":"LineString",
            "coordinates":[
               [
                  -97.04348,
                  32.89937,
                  1
               ],
               [
                  -97.04348,
                  32.899306,
                  1
               ]
            ]
         }
      },
      {
         "type":"Feature",
         "properties":{
            "type":"poi",
            "id":"rr_nw_4",
            "name":"North Wing Restroom 4 (Neutral)",
            "gender":"neutral",
            "level":1
         },
         "geometry":{
            "type":"Point",
            "coordinates":[
               -97.04298,
               32.89937,
               1
            ]
         }
      },
      {
         "type":"Feature",
         "properties":{
            "type":"path",
            "id":"rr_nw_4_branch",
            "name":"Branch to North Wing Restroom 3 (Neutral)",
            "level":1
         },
         "geometry":{
            "type":"LineString",
            "coordinates":[
               [
                  -97.04298,
                  32.89937,
                  1
               ],
               [
                  -97.042971,
                  32.899315,
                  1
               ]
            ]
         }
      },
      {
         "type":"Feature",
         "properties":{
            "type":"poi",
            "id":"rr_ne_1",
            "name":"East Confines - NE Tip 1 (Male)",
            "gender":"male",
            "level":1
         },
         "geometry":{
            "type":"Point",
            "coordinates":[
               -97.04208,
               32.89937,
               1
            ]
         }
      },
      {
         "type":"Feature",
         "properties":{
            "type":"path",
            "id":"rr_ne_1_branch",
            "name":"Branch to East Confines - NE Tip 1 (Male)",
            "level":1
         },
         "geometry":{
            "type":"LineString",
            "coordinates":[
               [
                  -97.04208,
                  32.89937,
                  1
               ],
               [
                  -97.042203,
                  32.899369,
                  1
               ]
            ]
         }
      },
      {
         "type":"Feature",
         "properties":{
            "type":"poi",
            "id":"rr_ne_2",
            "name":"East Confines - NE Tip 2 (Female)",
            "gender":"female",
            "level":1
         },
         "geometry":{
            "type":"Point",
            "coordinates":[
               -97.04208,
               32.89941,
               1
            ]
         }
      },
      {
         "type":"Feature",
         "properties":{
            "type":"path",
            "id":"rr_ne_2_branch",
            "name":"Branch to East Confines - NE Tip 2 (Female)",
            "level":1
         },
         "geometry":{
            "type":"LineString",
            "coordinates":[
               [
                  -97.04208,
                  32.89941,
                  1
               ],
               [
                  -97.042203,
                  32.899369,
                  1
               ]
            ]
         }
      },
      {
         "type":"Feature",
         "properties":{
            "type":"poi",
            "id":"rr_ne_3",
            "name":"East Confines - NE Tip 3 (Neutral)",
            "gender":"neutral",
            "level":1
         },
         "geometry":{
            "type":"Point",
            "coordinates":[
               -97.04208,
               32.89932,
               1
            ]
         }
      },
      {
         "type":"Feature",
         "properties":{
            "type":"path",
            "id":"rr_ne_3_branch",
            "name":"Branch to East Confines - NE Tip 3 (Neutral)",
            "level":1
         },
         "geometry":{
            "type":"LineString",
            "coordinates":[
               [
                  -97.04208,
                  32.89932,
                  1
               ],
               [
                  -97.042203,
                  32.899369,
                  1
               ]
            ]
         }
      },
      {
         "type":"Feature",
         "properties":{
            "type":"poi",
            "id":"rr_sw_1",
            "name":"South Wing Restroom 1 (Male)",
            "gender":"male",
            "level":1
         },
         "geometry":{
            "type":"Point",
            "coordinates":[
               -97.04398,
               32.89572,
               1
            ]
         }
      },
      {
         "type":"Feature",
         "properties":{
            "type":"path",
            "id":"rr_sw_1_branch",
            "name":"Branch to South Wing Restroom 1 (Male)",
            "level":1
         },
         "geometry":{
            "type":"LineString",
            "coordinates":[
               [
                  -97.04398,
                  32.89572,
                  1
               ],
               [
                  -97.043987,
                  32.895824,
                  1
               ]
            ]
         }
      },
      {
         "type":"Feature",
         "properties":{
            "type":"poi",
            "id":"rr_sw_2",
            "name":"South Wing Restroom 2 (Female)",
            "gender":"female",
            "level":1
         },
         "geometry":{
            "type":"Point",
            "coordinates":[
               -97.04394,
               32.89572,
               1
            ]
         }
      },
      {
         "type":"Feature",
         "properties":{
            "type":"path",
            "id":"rr_sw_2_branch",
            "name":"Branch to South Wing Restroom 2 (Female)",
            "level":1
         },
         "geometry":{
            "type":"LineString",
            "coordinates":[
               [
                  -97.04394,
                  32.89572,
                  1
               ],
               [
                  -97.043987,
                  32.895824,
                  1
               ]
            ]
         }
      },
      {
         "type":"Feature",
         "properties":{
            "type":"poi",
            "id":"rr_sw_3",
            "name":"South Wing Restroom 3 (Neutral)",
            "gender":"neutral",
            "level":1
         },
         "geometry":{
            "type":"Point",
            "coordinates":[
               -97.04348,
               32.89572,
               1
            ]
         }
      },
      {
         "type":"Feature",
         "properties":{
            "type":"path",
            "id":"rr_sw_3_branch",
            "name":"Branch to South Wing Restroom 3 (Neutral)",
            "level":1
         },
         "geometry":{
            "type":"LineString",
            "coordinates":[
               [
                  -97.04348,
                  32.89572,
                  1
               ],
               [
                  -97.043489,
                  32.895804,
                  1
               ]
            ]
         }
      },
      {
         "type":"Feature",
         "properties":{
            "type":"poi",
            "id":"rr_sw_4",
            "name":"South Wing Restroom 4 (Neutral)",
            "gender":"neutral",
            "level":1
         },
         "geometry":{
            "type":"Point",
            "coordinates":[
               -97.04298,
               32.89572,
               1
            ]
         }
      },
      {
         "type":"Feature",
         "properties":{
            "type":"path",
            "id":"rr_sw_4_branch",
            "name":"Branch to South Wing Restroom 4 (Neutral)",
            "level":1
         },
         "geometry":{
            "type":"LineString",
            "coordinates":[
               [
                  -97.04298,
                  32.89572,
                  1
               ],
               [
                  -97.042995,
                  32.895788,
                  1
               ]
            ]
         }
      },
      {
         "type":"Feature",
         "properties":{
            "type":"poi",
            "id":"rr_se_1",
            "name":"East Confines - SE Tip 1 (Male)",
            "gender":"male",
            "level":1
         },
         "geometry":{
            "type":"Point",
            "coordinates":[
               -97.04218,
               32.89572,
               1
            ]
         }
      },
      {
         "type":"Feature",
         "properties":{
            "type":"path",
            "id":"rr_se_1_branch",
            "name":"Branch to East Confines - SE Tip 1 (Male)",
            "level":1
         },
         "geometry":{
            "type":"LineString",
            "coordinates":[
               [
                  -97.04218,
                  32.89572,
                  1
               ],
               [
                  -97.042287,
                  32.895728,
                  1
               ]
            ]
         }
      },
      {
         "type":"Feature",
         "properties":{
            "type":"poi",
            "id":"rr_se_2",
            "name":"East Confines - SE Tip 2 (Female)",
            "gender":"female",
            "level":1
         },
         "geometry":{
            "type":"Point",
            "coordinates":[
               -97.04218,
               32.89576,
               1
            ]
         }
      },
      {
         "type":"Feature",
         "properties":{
            "type":"path",
            "id":"rr_se_2_branch",
            "name":"Branch to East Confines - SE Tip 2 (Female)",
            "level":1
         },
         "geometry":{
            "type":"LineString",
            "coordinates":[
               [
                  -97.04218,
                  32.89576,
                  1
               ],
               [
                  -97.042287,
                  32.895728,
                  1
               ]
            ]
         }
      },
      {
         "type":"Feature",
         "properties":{
            "type":"poi",
            "id":"rr_se_3",
            "name":"East Confines - SE Tip 3 (Neutral)",
            "gender":"neutral",
            "level":1
         },
         "geometry":{
            "type":"Point",
            "coordinates":[
               -97.04218,
               32.89567,
               1
            ]
         }
      },
      {
         "type":"Feature",
         "properties":{
            "type":"path",
            "id":"rr_se_3_branch",
            "name":"Branch to East Confines - SE Tip 3 (Neutral)",
            "level":1
         },
         "geometry":{
            "type":"LineString",
            "coordinates":[
               [
                  -97.04218,
                  32.89567,
                  1
               ],
               [
                  -97.042287,
                  32.895728,
                  1
               ]
            ]
         }
      },
      {
         "type":"Feature",
         "properties":{
            "type":"poi",
            "id":"rr_w_1",
            "name":"West Spine Restroom 1 (Male)",
            "gender":"male",
            "level":1
         },
         "geometry":{
            "type":"Point",
            "coordinates":[
               -97.04488,
               32.89652,
               1
            ]
         }
      },
      {
         "type":"Feature",
         "properties":{
            "type":"path",
            "id":"rr_w_1_branch",
            "name":"Branch to West Spine Restroom 1 (Male)",
            "level":1
         },
         "geometry":{
            "type":"LineString",
            "coordinates":[
               [
                  -97.04488,
                  32.89652,
                  1
               ],
               [
                  -97.044753,
                  32.89654,
                  1
               ]
            ]
         }
      },
      {
         "type":"Feature",
         "properties":{
            "type":"poi",
            "id":"rr_w_2",
            "name":"West Spine Restroom 2 (Female)",
            "gender":"female",
            "level":1
         },
         "geometry":{
            "type":"Point",
            "coordinates":[
               -97.04488,
               32.89656,
               1
            ]
         }
      },
      {
         "type":"Feature",
         "properties":{
            "type":"path",
            "id":"rr_w_2_branch",
            "name":"Branch to West Spine Restroom 2 (Female)",
            "level":1
         },
         "geometry":{
            "type":"LineString",
            "coordinates":[
               [
                  -97.04488,
                  32.89656,
                  1
               ],
               [
                  -97.044753,
                  32.89654,
                  1
               ]
            ]
         }
      },
      {
         "type":"Feature",
         "properties":{
            "type":"poi",
            "id":"rr_w_3",
            "name":"West Spine Restroom 3 (Male)",
            "gender":"male",
            "level":1
         },
         "geometry":{
            "type":"Point",
            "coordinates":[
               -97.04488,
               32.89702,
               1
            ]
         }
      },
      {
         "type":"Feature",
         "properties":{
            "type":"path",
            "id":"rr_w_3_branch",
            "name":"Branch to West Spine Restroom 3 (Male)",
            "level":1
         },
         "geometry":{
            "type":"LineString",
            "coordinates":[
               [
                  -97.04488,
                  32.89702,
                  1
               ],
               [
                  -97.044736,
                  32.897036,
                  1
               ]
            ]
         }
      },
      {
         "type":"Feature",
         "properties":{
            "type":"poi",
            "id":"rr_w_4",
            "name":"West Spine Restroom 4 (Female)",
            "gender":"female",
            "level":1
         },
         "geometry":{
            "type":"Point",
            "coordinates":[
               -97.04488,
               32.89706,
               1
            ]
         }
      },
      {
         "type":"Feature",
         "properties":{
            "type":"path",
            "id":"rr_w_4_branch",
            "name":"Branch to West Spine Restroom 4 (Female)",
            "level":1
         },
         "geometry":{
            "type":"LineString",
            "coordinates":[
               [
                  -97.04488,
                  32.89706,
                  1
               ],
               [
                  -97.044736,
                  32.897036,
                  1
               ]
            ]
         }
      },
      {
         "type":"Feature",
         "properties":{
            "type":"poi",
            "id":"rr_w_5",
            "name":"West Spine Restroom 5 (Male)",
            "gender":"male",
            "level":1
         },
         "geometry":{
            "type":"Point",
            "coordinates":[
               -97.04488,
               32.89752,
               1
            ]
         }
      },
      {
         "type":"Feature",
         "properties":{
            "type":"path",
            "id":"rr_w_5_branch",
            "name":"Branch to West Spine Restroom 5 (Male)",
            "level":1
         },
         "geometry":{
            "type":"LineString",
            "coordinates":[
               [
                  -97.04488,
                  32.89752,
                  1
               ],
               [
                  -97.044732,
                  32.897532,
                  1
               ]
            ]
         }
      },
      {
         "type":"Feature",
         "properties":{
            "type":"poi",
            "id":"rr_w_6",
            "name":"West Spine Restroom 6 (Female)",
            "gender":"female",
            "level":1
         },
         "geometry":{
            "type":"Point",
            "coordinates":[
               -97.04488,
               32.89756,
               1
            ]
         }
      },
      {
         "type":"Feature",
         "properties":{
            "type":"path",
            "id":"rr_w_6_branch",
            "name":"Branch to West Spine Restroom 6 (Female)",
            "level":1
         },
         "geometry":{
            "type":"LineString",
            "coordinates":[
               [
                  -97.04488,
                  32.89756,
                  1
               ],
               [
                  -97.044732,
                  32.897532,
                  1
               ]
            ]
         }
      },
      {
         "type":"Feature",
         "properties":{
            "type":"poi",
            "id":"rr_w_7",
            "name":"West Spine Restroom 7 (Male)",
            "gender":"male",
            "level":1
         },
         "geometry":{
            "type":"Point",
            "coordinates":[
               -97.04488,
               32.89802,
               1
            ]
         }
      },
      {
         "type":"Feature",
         "properties":{
            "type":"path",
            "id":"rr_w_7_branch",
            "name":"Branch to West Spine Restroom 7 (Male)",
            "level":1
         },
         "geometry":{
            "type":"LineString",
            "coordinates":[
               [
                  -97.04488,
                  32.89802,
                  1
               ],
               [
                  -97.044725,
                  32.89804,
                  1
               ]
            ]
         }
      },
      {
         "type":"Feature",
         "properties":{
            "type":"poi",
            "id":"rr_w_8",
            "name":"West Spine Restroom 8 (Female)",
            "gender":"female",
            "level":1
         },
         "geometry":{
            "type":"Point",
            "coordinates":[
               -97.04488,
               32.89806,
               1
            ]
         }
      },
      {
         "type":"Feature",
         "properties":{
            "type":"path",
            "id":"rr_w_8_branch",
            "name":"Branch to West Spine Restroom 8 (Female)",
            "level":1
         },
         "geometry":{
            "type":"LineString",
            "coordinates":[
               [
                  -97.04488,
                  32.89806,
                  1
               ],
               [
                  -97.044725,
                  32.89804,
                  1
               ]
            ]
         }
      },
      {
         "type":"Feature",
         "properties":{
            "type":"poi",
            "id":"rr_e_1",
            "name":"East Spine Restroom 1 (Male)",
            "gender":"male",
            "level":1
         },
         "geometry":{
            "type":"Point",
            "coordinates":[
               -97.043656,
               32.898727,
               1
            ]
         }
      },
      {
         "type":"Feature",
         "properties":{
            "type":"path",
            "id":"rr_e_1_branch",
            "name":"Branch to East Spine Restroom 1 (Male)",
            "level":1
         },
         "geometry":{
            "type":"LineString",
            "coordinates":[
               [
                  -97.043656,
                  32.898727,
                  1
               ],
               [
                  -97.043947,
                  32.898815,
                  1
               ]
            ]
         }
      },
      {
         "type":"Feature",
         "properties":{
            "type":"poi",
            "id":"rr_e_2",
            "name":"East Spine Restroom 2 (Female)",
            "gender":"female",
            "level":1
         },
         "geometry":{
            "type":"Point",
            "coordinates":[
               -97.04368,
               32.89869,
               1
            ]
         }
      },
      {
         "type":"Feature",
         "properties":{
            "type":"path",
            "id":"rr_e_2_branch",
            "name":"Branch to East Spine Restroom 2 (Female)",
            "level":1
         },
         "geometry":{
            "type":"LineString",
            "coordinates":[
               [
                  -97.04368,
                  32.89869,
                  1
               ],
               [
                  -97.043947,
                  32.898815,
                  1
               ]
            ]
         }
      },
      {
         "type":"Feature",
         "properties":{
            "type":"poi",
            "id":"rr_e_3",
            "name":"East Spine Restroom 3 (Male)",
            "gender":"male",
            "level":1
         },
         "geometry":{
            "type":"Point",
            "coordinates":[
               -97.044233,
               32.89756,
               1
            ]
         }
      },
      {
         "type":"Feature",
         "properties":{
            "type":"path",
            "id":"rr_e_3_branch",
            "name":"Branch to East Spine Restroom 3 (Male)",
            "level":1
         },
         "geometry":{
            "type":"LineString",
            "coordinates":[
               [
                  -97.044233,
                  32.89756,
                  1
               ],
               [
                  -97.044471,
                  32.897546,
                  1
               ]
            ]
         }
      },
      {
         "type":"Feature",
         "properties":{
            "type":"poi",
            "id":"rr_e_4",
            "name":"East Spine Restroom 4 (Female)",
            "gender":"female",
            "level":1
         },
         "geometry":{
            "type":"Point",
            "coordinates":[
               -97.044233,
               32.89752,
               1
            ]
         }
      },
      {
         "type":"Feature",
         "properties":{
            "type":"path",
            "id":"rr_e_4_branch",
            "name":"Branch to East Spine Restroom 4 (Female)",
            "level":1
         },
         "geometry":{
            "type":"LineString",
            "coordinates":[
               [
                  -97.044233,
                  32.89752,
                  1
               ],
               [
                  -97.044471,
                  32.897546,
                  1
               ]
            ]
         }
      },
      {
         "type":"Feature",
         "properties":{
            "type":"poi",
            "id":"rr_e_5",
            "name":"East Spine Restroom 5 (Neutral)",
            "gender":"neutral",
            "level":1
         },
         "geometry":{
            "type":"Point",
            "coordinates":[
               -97.044233,
               32.89748,
               1
            ]
         }
      },
      {
         "type":"Feature",
         "properties":{
            "type":"path",
            "id":"rr_e_5_branch",
            "name":"Branch to East Spine Restroom 5 (Neutral)",
            "level":1
         },
         "geometry":{
            "type":"LineString",
            "coordinates":[
               [
                  -97.044233,
                  32.89748,
                  1
               ],
               [
                  -97.044471,
                  32.897546,
                  1
               ]
            ]
         }
      },
      {
         "type":"Feature",
         "properties":{
            "type":"poi",
            "id":"rr_e_6",
            "name":"East Spine Restroom 6 (Male)",
            "gender":"male",
            "level":1
         },
         "geometry":{
            "type":"Point",
            "coordinates":[
               -97.043889,
               32.896645,
               1
            ]
         }
      },
      {
         "type":"Feature",
         "properties":{
            "type":"path",
            "id":"rr_e_6_branch",
            "name":"Branch to East Spine Restroom 6 (Male)",
            "level":1
         },
         "geometry":{
            "type":"LineString",
            "coordinates":[
               [
                  -97.043889,
                  32.896645,
                  1
               ],
               [
                  -97.044179,
                  32.896499,
                  1
               ]
            ]
         }
      },
      {
         "type":"Feature",
         "properties":{
            "type":"poi",
            "id":"rr_e_7",
            "name":"East Spine Restroom 7 (Female)",
            "gender":"female",
            "level":1
         },
         "geometry":{
            "type":"Point",
            "coordinates":[
               -97.043867,
               32.896616,
               1
            ]
         }
      },
      {
         "type":"Feature",
         "properties":{
            "type":"path",
            "id":"rr_e_7_branch",
            "name":"Branch to East Spine Restroom 7 (Female)",
            "level":1
         },
         "geometry":{
            "type":"LineString",
            "coordinates":[
               [
                  -97.043867,
                  32.896616,
                  1
               ],
               [
                  -97.044179,
                  32.896499,
                  1
               ]
            ]
         }
      }
   ]
}