{
   "type":"FeatureCollection",
   "features":[
      {
         "type":"Feature",
         "properties":{
            "type":"building",
            "id":"terminal_building",
            "name":"Terminal Building",
            "level":"1"
         },
         "geometry":{
            "type":"Polygon",
            "coordinates":[
               [
                  [
                     -97.045091,
                     32.89947,
                     1
                  ],
                  [
                     -97.04508,
                     32.895644,
                     1
                  ],
                  [
                     -97.042096,
                     32.89564,
                     1
                  ],
                  [
                     -97.042096,
                     32.89581,
                     1
                  ],
                  [
                     -97.04281,
                     32.895823,
                     1
                  ],
                  [
                     -97.044121,
                     32.897014,
                     1
                  ],
                  [
                     -97.044105,
                     32.89815,
                     1
                  ],
                  [
                     -97.042794,
                     32.899291,
                     1
                  ],
                  [
                     -97.041824,
                     32.899287,
                     1
                  ],
                  [
                     -97.041835,
                     32.899461,
                     1
                  ],
                  [
                     -97.045091,
                     32.89947,
                     1
                  ]
               ]
            ]
         }
      },
      {
         "type":"Feature",
         "properties":{
            "type":"restroom",
            "id":"rr_nw_1",
            "name":"North Wing Restroom 1 (Male)",
            "gender":"male",
            "level":1
         },
         "geometry":{
            "type":"Polygon",
            "coordinates":[
               [
                  [
                     -97.044,
                     32.89935,
                     1
                  ],
                  [
                     -97.04396,
                     32.89935,
                     1
                  ],
                  [
                     -97.04396,
                     32.89939,
                     1
                  ],
                  [
                     -97.044,
                     32.89939,
                     1
                  ],
                  [
                     -97.044,
                     32.89935,
                     1
                  ]
               ]
            ]
         }
      },
      {
         "type":"Feature",
         "properties":{
            "type":"restroom",
            "id":"rr_nw_2",
            "name":"North Wing Restroom 2 (Female)",
            "gender":"female",
            "level":1
         },
         "geometry":{
            "type":"Polygon",
            "coordinates":[
               [
                  [
                     -97.04396,
                     32.89935,
                     1
                  ],
                  [
                     -97.04392,
                     32.89935,
                     1
                  ],
                  [
                     -97.04392,
                     32.89939,
                     1
                  ],
                  [
                     -97.04396,
                     32.89939,
                     1
                  ],
                  [
                     -97.04396,
                     32.89935,
                     1
                  ]
               ]
            ]
         }
      },
      {
         "type":"Feature",
         "properties":{
            "type":"restroom",
            "id":"rr_nw_3",
            "name":"North Wing Restroom 3 (Neutral)",
            "gender":"neutral",
            "level":1
         },
         "geometry":{
            "type":"Polygon",
            "coordinates":[
               [
                  [
                     -97.0435,
                     32.89935,
                     1
                  ],
                  [
                     -97.04346,
                     32.89935,
                     1
                  ],
                  [
                     -97.04346,
                     32.89939,
                     1
                  ],
                  [
                     -97.0435,
                     32.89939,
                     1
                  ],
                  [
                     -97.0435,
                     32.89935,
                     1
                  ]
               ]
            ]
         }
      },
      {
         "type":"Feature",
         "properties":{
            "type":"restroom",
            "id":"rr_nw_4",
            "name":"North Wing Restroom 4 (Neutral)",
            "gender":"neutral",
            "level":1
         },
         "geometry":{
            "type":"Polygon",
            "coordinates":[
               [
                  [
                     -97.043,
                     32.89935,
                     1
                  ],
                  [
                     -97.04296,
                     32.89935,
                     1
                  ],
                  [
                     -97.04296,
                     32.89939,
                     1
                  ],
                  [
                     -97.043,
                     32.89939,
                     1
                  ],
                  [
                     -97.043,
                     32.89935,
                     1
                  ]
               ]
            ]
         }
      },
      {
         "type":"Feature",
         "properties":{
            "type":"restroom",
            "id":"rr_ne_1",
            "name":"East Confines - NE Tip 1 (Male)",
            "gender":"male",
            "level":1
         },
         "geometry":{
            "type":"Polygon",
            "coordinates":[
               [
                  [
                     -97.0421,
                     32.89935,
                     1
                  ],
                  [
                     -97.04206,
                     32.89935,
                     1
                  ],
                  [
                     -97.04206,
                     32.89939,
                     1
                  ],
                  [
                     -97.0421,
                     32.89939,
                     1
                  ],
                  [
                     -97.0421,
                     32.89935,
                     1
                  ]
               ]
            ]
         }
      },
      {
         "type":"Feature",
         "properties":{
            "type":"restroom",
            "id":"rr_ne_2",
            "name":"East Confines - NE Tip 2 (Female)",
            "gender":"female",
            "level":1
         },
         "geometry":{
            "type":"Polygon",
            "coordinates":[
               [
                  [
                     -97.0421,
                     32.89939,
                     1
                  ],
                  [
                     -97.04206,
                     32.89939,
                     1
                  ],
                  [
                     -97.04206,
                     32.89943,
                     1
                  ],
                  [
                     -97.0421,
                     32.89943,
                     1
                  ],
                  [
                     -97.0421,
                     32.89939,
                     1
                  ]
               ]
            ]
         }
      },
      {
         "type":"Feature",
         "properties":{
            "type":"restroom",
            "id":"rr_ne_3",
            "name":"East Confines - NE Tip 3 (Neutral)",
            "gender":"neutral",
            "level":1
         },
         "geometry":{
            "type":"Polygon",
            "coordinates":[
               [
                  [
                     -97.0421,
                     32.8993,
                     1
                  ],
                  [
                     -97.04206,
                     32.8993,
                     1
                  ],
                  [
                     -97.04206,
                     32.89934,
                     1
                  ],
                  [
                     -97.0421,
                     32.89934,
                     1
                  ],
                  [
                     -97.0421,
                     32.8993,
                     1
                  ]
               ]
            ]
         }
      },
      {
         "type":"Feature",
         "properties":{
            "type":"restroom",
            "id":"rr_sw_1",
            "name":"South Wing Restroom 1 (Male)",
            "gender":"male",
            "level":1
         },
         "geometry":{
            "type":"Polygon",
            "coordinates":[
               [
                  [
                     -97.044,
                     32.8957,
                     1
                  ],
                  [
                     -97.04396,
                     32.8957,
                     1
                  ],
                  [
                     -97.04396,
                     32.89574,
                     1
                  ],
                  [
                     -97.044,
                     32.89574,
                     1
                  ],
                  [
                     -97.044,
                     32.8957,
                     1
                  ]
               ]
            ]
         }
      },
      {
         "type":"Feature",
         "properties":{
            "type":"restroom",
            "id":"rr_sw_2",
            "name":"South Wing Restroom 2 (Female)",
            "gender":"female",
            "level":1
         },
         "geometry":{
            "type":"Polygon",
            "coordinates":[
               [
                  [
                     -97.04396,
                     32.8957,
                     1
                  ],
                  [
                     -97.04392,
                     32.8957,
                     1
                  ],
                  [
                     -97.04392,
                     32.89574,
                     1
                  ],
                  [
                     -97.04396,
                     32.89574,
                     1
                  ],
                  [
                     -97.04396,
                     32.8957,
                     1
                  ]
               ]
            ]
         }
      },
      {
         "type":"Feature",
         "properties":{
            "type":"restroom",
            "id":"rr_sw_3",
            "name":"South Wing Restroom 3 (Neutral)",
            "gender":"neutral",
            "level":1
         },
         "geometry":{
            "type":"Polygon",
            "coordinates":[
               [
                  [
                     -97.0435,
                     32.8957,
                     1
                  ],
                  [
                     -97.04346,
                     32.8957,
                     1
                  ],
                  [
                     -97.04346,
                     32.89574,
                     1
                  ],
                  [
                     -97.0435,
                     32.89574,
                     1
                  ],
                  [
                     -97.0435,
                     32.8957,
                     1
                  ]
               ]
            ]
         }
      },
      {
         "type":"Feature",
         "properties":{
            "type":"restroom",
            "id":"rr_sw_4",
            "name":"South Wing Restroom 4 (Neutral)",
            "gender":"neutral",
            "level":1
         },
         "geometry":{
            "type":"Polygon",
            "coordinates":[
               [
                  [
                     -97.043,
                     32.8957,
                     1
                  ],
                  [
                     -97.04296,
                     32.8957,
                     1
                  ],
                  [
                     -97.04296,
                     32.89574,
                     1
                  ],
                  [
                     -97.043,
                     32.89574,
                     1
                  ],
                  [
                     -97.043,
                     32.8957,
                     1
                  ]
               ]
            ]
         }
      },
      {
         "type":"Feature",
         "properties":{
            "type":"restroom",
            "id":"rr_se_1",
            "name":"East Confines - SE Tip 1 (Male)",
            "gender":"male",
            "level":1
         },
         "geometry":{
            "type":"Polygon",
            "coordinates":[
               [
                  [
                     -97.0422,
                     32.8957,
                     1
                  ],
                  [
                     -97.04216,
                     32.8957,
                     1
                  ],
                  [
                     -97.04216,
                     32.89574,
                     1
                  ],
                  [
                     -97.0422,
                     32.89574,
                     1
                  ],
                  [
                     -97.0422,
                     32.8957,
                     1
                  ]
               ]
            ]
         }
      },
      {
         "type":"Feature",
         "properties":{
            "type":"restroom",
            "id":"rr_se_2",
            "name":"East Confines - SE Tip 2 (Female)",
            "gender":"female",
            "level":1
         },
         "geometry":{
            "type":"Polygon",
            "coordinates":[
               [
                  [
                     -97.0422,
                     32.89574,
                     1
                  ],
                  [
                     -97.04216,
                     32.89574,
                     1
                  ],
                  [
                     -97.04216,
                     32.89578,
                     1
                  ],
                  [
                     -97.0422,
                     32.89578,
                     1
                  ],
                  [
                     -97.0422,
                     32.89574,
                     1
                  ]
               ]
            ]
         }
      },
      {
         "type":"Feature",
         "properties":{
            "type":"restroom",
            "id":"rr_se_3",
            "name":"East Confines - SE Tip 3 (Neutral)",
            "gender":"neutral",
            "level":1
         },
         "geometry":{
            "type":"Polygon",
            "coordinates":[
               [
                  [
                     -97.0422,
                     32.89565,
                     1
                  ],
                  [
                     -97.04216,
                     32.89565,
                     1
                  ],
                  [
                     -97.04216,
                     32.89569,
                     1
                  ],
                  [
                     -97.0422,
                     32.89569,
                     1
                  ],
                  [
                     -97.0422,
                     32.89565,
                     1
                  ]
               ]
            ]
         }
      },
      {
         "type":"Feature",
         "properties":{
            "type":"restroom",
            "id":"rr_w_1",
            "name":"West Spine Restroom 1 (Male)",
            "gender":"male",
            "level":1
         },
         "geometry":{
            "type":"Polygon",
            "coordinates":[
               [
                  [
                     -97.0449,
                     32.8965,
                     1
                  ],
                  [
                     -97.04486,
                     32.8965,
                     1
                  ],
                  [
                     -97.04486,
                     32.89654,
                     1
                  ],
                  [
                     -97.0449,
                     32.89654,
                     1
                  ],
                  [
                     -97.0449,
                     32.8965,
                     1
                  ]
               ]
            ]
         }
      },
      {
         "type":"Feature",
         "properties":{
            "type":"restroom",
            "id":"rr_w_2",
            "name":"West Spine Restroom 2 (Female)",
            "gender":"female",
            "level":1
         },
         "geometry":{
            "type":"Polygon",
            "coordinates":[
               [
                  [
                     -97.0449,
                     32.89654,
                     1
                  ],
                  [
                     -97.04486,
                     32.89654,
                     1
                  ],
                  [
                     -97.04486,
                     32.89658,
                     1
                  ],
                  [
                     -97.0449,
                     32.89658,
                     1
                  ],
                  [
                     -97.0449,
                     32.89654,
                     1
                  ]
               ]
            ]
         }
      },
      {
         "type":"Feature",
         "properties":{
            "type":"restroom",
            "id":"rr_w_3",
            "name":"West Spine Restroom 3 (Male)",
            "gender":"male",
            "level":1
         },
         "geometry":{
            "type":"Polygon",
            "coordinates":[
               [
                  [
                     -97.0449,
                     32.897,
                     1
                  ],
                  [
                     -97.04486,
                     32.897,
                     1
                  ],
                  [
                     -97.04486,
                     32.89704,
                     1
                  ],
                  [
                     -97.0449,
                     32.89704,
                     1
                  ],
                  [
                     -97.0449,
                     32.897,
                     1
                  ]
               ]
            ]
         }
      },
      {
         "type":"Feature",
         "properties":{
            "type":"restroom",
            "id":"rr_w_4",
            "name":"West Spine Restroom 4 (Female)",
            "gender":"female",
            "level":1
         },
         "geometry":{
            "type":"Polygon",
            "coordinates":[
               [
                  [
                     -97.0449,
                     32.89704,
                     1
                  ],
                  [
                     -97.04486,
                     32.89704,
                     1
                  ],
                  [
                     -97.04486,
                     32.89708,
                     1
                  ],
                  [
                     -97.0449,
                     32.89708,
                     1
                  ],
                  [
                     -97.0449,
                     32.89704,
                     1
                  ]
               ]
            ]
         }
      },
      {
         "type":"Feature",
         "properties":{
            "type":"restroom",
            "id":"rr_w_5",
            "name":"West Spine Restroom 5 (Male)",
            "gender":"male",
            "level":1
         },
         "geometry":{
            "type":"Polygon",
            "coordinates":[
               [
                  [
                     -97.0449,
                     32.8975,
                     1
                  ],
                  [
                     -97.04486,
                     32.8975,
                     1
                  ],
                  [
                     -97.04486,
                     32.89754,
                     1
                  ],
                  [
                     -97.0449,
                     32.89754,
                     1
                  ],
                  [
                     -97.0449,
                     32.8975,
                     1
                  ]
               ]
            ]
         }
      },
      {
         "type":"Feature",
         "properties":{
            "type":"restroom",
            "id":"rr_w_6",
            "name":"West Spine Restroom 6 (Female)",
            "gender":"female",
            "level":1
         },
         "geometry":{
            "type":"Polygon",
            "coordinates":[
               [
                  [
                     -97.0449,
                     32.89754,
                     1
                  ],
                  [
                     -97.04486,
                     32.89754,
                     1
                  ],
                  [
                     -97.04486,
                     32.89758,
                     1
                  ],
                  [
                     -97.0449,
                     32.89758,
                     1
                  ],
                  [
                     -97.0449,
                     32.89754,
                     1
                  ]
               ]
            ]
         }
      },
      {
         "type":"Feature",
         "properties":{
            "type":"restroom",
            "id":"rr_w_7",
            "name":"West Spine Restroom 7 (Male)",
            "gender":"male",
            "level":1
         },
         "geometry":{
            "type":"Polygon",
            "coordinates":[
               [
                  [
                     -97.0449,
                     32.898,
                     1
                  ],
                  [
                     -97.04486,
                     32.898,
                     1
                  ],
                  [
                     -97.04486,
                     32.89804,
                     1
                  ],
                  [
                     -97.0449,
                     32.89804,
                     1
                  ],
                  [
                     -97.0449,
                     32.898,
                     1
                  ]
               ]
            ]
         }
      },
      {
         "type":"Feature",
         "properties":{
            "type":"restroom",
            "id":"rr_w_8",
            "name":"West Spine Restroom 8 (Female)",
            "gender":"female",
            "level":1
         },
         "geometry":{
            "type":"Polygon",
            "coordinates":[
               [
                  [
                     -97.0449,
                     32.89804,
                     1
                  ],
                  [
                     -97.04486,
                     32.89804,
                     1
                  ],
                  [
                     -97.04486,
                     32.89808,
                     1
                  ],
                  [
                     -97.0449,
                     32.89808,
                     1
                  ],
                  [
                     -97.0449,
                     32.89804,
                     1
                  ]
               ]
            ]
         }
      },
      {
         "type":"Feature",
         "properties":{
            "id":"rr_e_1",
            "name":"East Spine Restroom 1 (Male)",
            "type":"restroom",
            "gender":"male",
            "level":1
         },
         "geometry":{
            "type":"Polygon",
            "coordinates":[
               [
                  [
                     -97.04365,
                     32.898697
                  ],
                  [
                     -97.043626,
                     32.898733
                  ],
                  [
                     -97.043662,
                     32.898757
                  ],
                  [
                     -97.043686,
                     32.89872
                  ],
                  [
                     -97.04365,
                     32.898697
                  ]
               ]
            ]
         }
      },
      {
         "type":"Feature",
         "properties":{
            "id":"rr_e_6",
            "name":"East Spine Restroom 6 (Male)",
            "type":"restroom",
            "gender":"male",
            "level":1
         },
         "geometry":{
            "type":"Polygon",
            "coordinates":[
               [
                  [
                     -97.043887,
                     32.89667
                  ],
                  [
                     -97.043915,
                     32.896647
                  ],
                  [
                     -97.043892,
                     32.896619
                  ],
                  [
                     -97.043864,
                     32.896642
                  ],
                  [
                     -97.043887,
                     32.89667
                  ]
               ]
            ]
         }
      },
      {
         "type":"Feature",
         "properties":{
            "id":"rr_e_7",
            "name":"East Spine Restroom 7 (Female)",
            "type":"restroom",
            "gender":"female",
            "level":1
         },
         "geometry":{
            "type":"Polygon",
            "coordinates":[
               [
                  [
                     -97.043892,
                     32.896619
                  ],
                  [
                     -97.04387,
                     32.89659
                  ],
                  [
                     -97.043841,
                     32.896613
                  ],
                  [
                     -97.043864,
                     32.896642
                  ],
                  [
                     -97.043892,
                     32.896619
                  ]
               ]
            ]
         }
      },
      {
         "type":"Feature",
         "properties":{
            "id":"rr_e_2",
            "name":"East Spine Restroom 2 (Female)",
            "type":"restroom",
            "gender":"female",
            "level":1
         },
         "geometry":{
            "type":"Polygon",
            "coordinates":[
               [
                  [
                     -97.04365,
                     32.898697
                  ],
                  [
                     -97.043686,
                     32.89872
                  ],
                  [
                     -97.04371,
                     32.898684
                  ],
                  [
                     -97.043673,
                     32.89866
                  ],
                  [
                     -97.04365,
                     32.898697
                  ]
               ]
            ]
         }
      },
      {
         "type":"Feature",
         "properties":{
            "type":"restroom",
            "id":"rr_e_3",
            "name":"East Spine Restroom 3 (Male)",
            "gender":"male",
            "level":1
         },
         "geometry":{
            "type":"Polygon",
            "coordinates":[
               [
                  [
                     -97.044253,
                     32.89758
                  ],
                  [
                     -97.044253,
                     32.89754
                  ],
                  [
                     -97.044213,
                     32.89754
                  ],
                  [
                     -97.044213,
                     32.89758
                  ],
                  [
                     -97.044253,
                     32.89758
                  ]
               ]
            ]
         }
      },
      {
         "type":"Feature",
         "properties":{
            "type":"restroom",
            "id":"rr_e_4",
            "name":"East Spine Restroom 4 (Female)",
            "gender":"female",
            "level":1
         },
         "geometry":{
            "type":"Polygon",
            "coordinates":[
               [
                  [
                     -97.044253,
                     32.89754
                  ],
                  [
                     -97.044253,
                     32.8975
                  ],
                  [
                     -97.044213,
                     32.8975
                  ],
                  [
                     -97.044213,
                     32.89754
                  ],
                  [
                     -97.044253,
                     32.89754
                  ]
               ]
            ]
         }
      },
      {
         "type":"Feature",
         "properties":{
            "type":"restroom",
            "id":"rr_e_5",
            "name":"East Spine Restroom 5 (Neutral)",
            "gender":"neutral",
            "level":1
         },
         "geometry":{
            "type":"Polygon",
            "coordinates":[
               [
                  [
                     -97.044253,
                     32.8975
                  ],
                  [
                     -97.044253,
                     32.89746
                  ],
                  [
                     -97.044213,
                     32.89746
                  ],
                  [
                     -97.044213,
                     32.8975
                  ],
                  [
                     -97.044253,
                     32.8975
                  ]
               ]
            ]
         }
      }
   ]
}